{"fetched_at":"2026-03-29T16:36:15Z","count":15609,"tles":[{"name":"STARLINK-33574","line1":"1 62774U 25015S   26087.76127265  .00018867  00000+0  64722-3 0  9991","line2":"2 62774  53.1582 233.6897 0001182  98.4851 261.6284 15.30215158 67123","category":"Starlink"}]}