{
  "norad_id": 62774,
  "name": "STARLINK-33574",
  "history": [
    {
      "epoch": "2026-03-28T18:16:13.956960",
      "apogee_km": 475.9804198667498,
      "perigee_km": 474.3592016076027,
      "latitude_deg": 42.39925711586252,
      "longitude_deg": 170.48217439977452,
      "semi_major_axis_km": 6853.306810737176,
      "eccentricity": 0.00011828,
      "inclination_deg": 53.1582,
      "raan_deg": 233.6897,
      "arg_perigee_deg": 98.4851,
      "mean_anomaly_deg": 261.6284,
      "mean_motion_rev_day": 15.30215158
    }
  ]
}